INCHNACVPN01,2020:07:20:11:12,waitham,TCL_SecureAuth_OTP_Profile,10.149.232.177,19:20:05 IST Sun Jul 19 2020,15h:40m:03s, 180.129.45.14 ,{"ip":"180.129.45.14","location":{"country":"SG","region":"Singapore","city":"Singapore","lat":1.2929,"lng":103.8547,"postalCode":"18","timezone":"+08:00","geonameId":1880252},"as":{"asn":4773,"name":"M1 Limited","route":"180.129.0.0\/18","domain":"http:\/\/www.m1.com.sg","type":"Cable\/DSL\/ISP"},"isp":"M1 LIMITED","connectionType":"broadband"}
INCHNACVPN01,2020:07:20:11:12,Vmuthu,TCL_SecureAuth_OTP_Profile,10.149.232.201,19:42:49 IST Sun Jul 19 2020,15h:17m:19s, 122.164.254.222 ,{"ip":"122.164.254.222","location":{"country":"IN","region":"Tamil Nadu","city":"Chennai","lat":13.086,"lng":80.2751,"postalCode":"600001","timezone":"+05:30","geonameId":1264527},"as":{"asn":24560,"name":"Bharti Airtel Ltd., Telemedia Services","route":"122.164.240.0\/20","domain":"airtelmail.in","type":""},"isp":"BHARTI","connectionType":"broadband"}
INCHNACVPN01,2020:07:20:11:12,chrisang,TCL_SecureAuth_OTP_Profile,10.149.233.27,01:44:35 IST Mon Jul 20 2020,9h:15m:33s, 115.97.54.116 ,{"ip":"115.97.54.116","location":{"country":"IN","region":"Tamil Nadu","city":"Chennai","lat":13.086,"lng":80.2751,"postalCode":"600005","timezone":"+05:30","geonameId":1264527},"as":{"asn":17488,"name":"Hathway IP Over Cable Internet","route":"115.97.48.0\/21","domain":"http:\/\/www.hathway.net","type":"Cable\/DSL\/ISP"},"isp":"Hathway IP over Cable Internet Access","connectionType":"broadband"}
INCHNACVPN01,2020:07:20:11:12,vvaiyapu,TCL_SecureAuth_OTP_Profile,10.149.232.193,05:40:53 IST Mon Jul 20 2020,5h:19m:15s, 115.99.9.2 ,{"ip":"115.99.9.2","location":{"country":"IN","region":"Tamil Nadu","city":"G\u0101ndh\u012b Nagar","lat":13.0064,"lng":80.2542,"postalCode":"","timezone":"+05:30","geonameId":1271714},"as":{"asn":17488,"name":"Hathway IP Over Cable Internet","route":"115.99.8.0\/22","domain":"http:\/\/www.hathway.net","type":"Cable\/DSL\/ISP"},"isp":"Hathway IP over Cable Internet Access","connectionType":"broadband"}
INCHNACVPN01,2020:07:20:11:12,nkumaran,TCL_SecureAuth_OTP_Profile,10.149.232.195,05:46:14 IST Mon Jul 20 2020,5h:13m:54s, 157.50.10.135 ,{"ip":"157.50.10.135","location":{"country":"IN","region":"Tamil Nadu","city":"Turaiyur","lat":11.1271,"lng":78.6569,"postalCode":"621010","timezone":"+05:30","geonameId":1254043},"as":{"asn":55836,"name":"Reliance Jio Infocomm NLD Network","route":"157.50.0.0\/16","domain":"","type":"Not Disclosed"},"isp":"Reliance Jio Infocomm Ltd","connectionType":"mobile"}
INCHNACVPN01,2020:07:20:11:12,gdhanapa,TCL_SecureAuth_OTP_Profile,10.149.232.196,05:58:31 IST Mon Jul 20 2020,5h:01m:37s, 116.88.69.19 ,{"ip":"116.88.69.19","location":{"country":"SG","region":"Singapore","city":"Singapore","lat":1.28967,"lng":103.85,"postalCode":"","timezone":"+08:00","geonameId":1880252},"as":{"asn":55430,"name":"StarHub (as55430)","route":"116.88.64.0\/18","domain":"http:\/\/www.starhub.com","type":"Not Disclosed"},"isp":"SGCABLEVISION","connectionType":"broadband"}
INCHNACVPN01,2020:07:20:11:12,rsundarr,TCL_SecureAuth_OTP_Profile,10.149.232.197,06:08:02 IST Mon Jul 20 2020,4h:52m:06s, 106.208.19.22 ,{"ip":"106.208.19.22","location":{"country":"IN","region":"Tamil Nadu","city":"Avadi","lat":13.1147,"lng":80.1098,"postalCode":"","timezone":"+05:30","geonameId":1278130},"as":{"asn":45609,"name":"Bharti Airtel Ltd. AS for GPRS Service","route":"106.208.16.0\/22","domain":"","type":""},"isp":"Airtel","connectionType":"mobile"}
INCHNACVPN01,2020:07:20:11:12,laksnara,TCL_SecureAuth_OTP_Profile,10.149.232.117,06:08:14 IST Mon Jul 20 2020,4h:51m:54s, 157.50.53.52 ,{"ip":"157.50.53.52","location":{"country":"IN","region":"Tamil Nadu","city":"Tiruchi","lat":10.8155,"lng":78.6965,"postalCode":"","timezone":"+05:30","geonameId":1254388},"as":{"asn":55836,"name":"Reliance Jio Infocomm NLD Network","route":"157.50.0.0\/16","domain":"","type":"Not Disclosed"},"isp":"Reliance Jio Infocomm Ltd","connectionType":"mobile"}
INCHNACVPN01,2020:07:20:11:12,lvajja,TCL_SecureAuth_OTP_Profile,10.149.232.122,06:23:19 IST Mon Jul 20 2020,4h:36m:49s, 160.238.74.4 ,{"ip":"160.238.74.4","location":{"country":"IN","region":"Andhra Pradesh","city":"Ongole","lat":15.5057,"lng":80.0499,"postalCode":"523001","timezone":"+05:30","geonameId":1261045},"as":{"asn":133287,"name":"Andhra Pradesh State FiberNet","route":"160.238.74.0\/24","domain":"http:\/\/www.apsfl.in","type":"Cable\/DSL\/ISP"},"isp":"Andhra Pradesh State FiberNet Limited","connectionType":"broadband"}
INCHNACVPN01,2020:07:20:11:12,goprasad,TCL_SecureAuth_OTP_Profile,10.149.232.123,06:24:04 IST Mon Jul 20 2020,4h:36m:04s, 157.48.57.252 ,{"ip":"157.48.57.252","location":{"country":"IN","region":"Telangana","city":"Koratla","lat":18.8215,"lng":78.7119,"postalCode":"","timezone":"+05:30","geonameId":1266124},"as":{"asn":55836,"name":"Reliance Jio Infocomm NLD Network","route":"157.48.0.0\/16","domain":"","type":"Not Disclosed"},"isp":"Reliance Jio Infocomm Ltd","connectionType":"mobile"}
INCHNACVPN01,2020:07:20:11:12,AlagChan,TCL_SecureAuth_OTP_Profile,10.149.232.126,06:37:57 IST Mon Jul 20 2020,4h:22m:11s, 157.50.194.148 ,{"ip":"157.50.194.148","location":{"country":"IN","region":"Tamil Nadu","city":"Turaiyur","lat":11.1271,"lng":78.6569,"postalCode":"621010","timezone":"+05:30","geonameId":1254043},"as":{"asn":55836,"name":"Reliance Jio Infocomm NLD Network","route":"157.50.0.0\/16","domain":"","type":"Not Disclosed"},"isp":"Reliance Jio Infocomm Ltd","connectionType":"mobile"}
INCHNACVPN01,2020:07:20:11:12,yamunat,TCL_SecureAuth_OTP_Profile,10.149.232.129,06:38:37 IST Mon Jul 20 2020,4h:21m:31s, 106.203.84.207 ,{"ip":"106.203.84.207","location":{"country":"IN","region":"Karnataka","city":"Bengaluru","lat":12.9716,"lng":77.5946,"postalCode":"560056","timezone":"+05:30","geonameId":1277333},"as":{"asn":45609,"name":"Bharti Airtel Ltd. AS for GPRS Service","route":"106.203.64.0\/19","domain":"","type":""},"isp":"Airtel","connectionType":"mobile"}
INCHNACVPN01,2020:07:20:11:12,MARIMUTK,TCL_SecureAuth_OTP_Profile,10.149.232.128,06:39:07 IST Mon Jul 20 2020,4h:21m:01s, 157.50.84.67 ,{"ip":"157.50.84.67","location":{"country":"IN","region":"Tamil Nadu","city":"Turaiyur","lat":11.1271,"lng":78.6569,"postalCode":"621010","timezone":"+05:30","geonameId":1254043},"as":{"asn":55836,"name":"Reliance Jio Infocomm NLD Network","route":"157.50.0.0\/16","domain":"","type":"Not Disclosed"},"isp":"Reliance Jio Infocomm Ltd","connectionType":"mobile"}
INCHNACVPN01,2020:07:20:11:12,hmani,TCL_SecureAuth_OTP_Profile,10.149.232.130,06:39:44 IST Mon Jul 20 2020,4h:20m:24s, 157.50.223.167 ,{"ip":"157.50.223.167","location":{"country":"IN","region":"Tamil Nadu","city":"Turaiyur","lat":11.1271,"lng":78.6569,"postalCode":"621010","timezone":"+05:30","geonameId":1254043},"as":{"asn":55836,"name":"Reliance Jio Infocomm NLD Network","route":"157.50.0.0\/16","domain":"","type":"Not Disclosed"},"isp":"Reliance Jio Infocomm Ltd","connectionType":"mobile"}
INCHNACVPN01,2020:07:20:11:12,ATenniso,TCL_SecureAuth_OTP_Profile,10.149.232.132,06:40:30 IST Mon Jul 20 2020,4h:19m:38s, 182.65.211.124 ,{"ip":"182.65.211.124","location":{"country":"IN","region":"Tamil Nadu","city":"Chennai","lat":13.086,"lng":80.2751,"postalCode":"600021","timezone":"+05:30","geonameId":1264527},"as":{"asn":24560,"name":"Bharti Airtel Ltd., Telemedia Services","route":"182.65.208.0\/20","domain":"airtelmail.in","type":""},"isp":"Bharti Airtel","connectionType":"broadband"}
INCHNACVPN01,2020:07:20:11:12,shimacha,TCL_SecureAuth_OTP_Profile,10.149.232.125,06:48:58 IST Mon Jul 20 2020,4h:11m:10s, 157.48.205.186 ,{"ip":"157.48.205.186","location":{"country":"IN","region":"Andhra Pradesh","city":"R\u0101zampeta","lat":14.1954,"lng":79.159,"postalCode":"","timezone":"+05:30","geonameId":1258922},"as":{"asn":55836,"name":"Reliance Jio Infocomm NLD Network","route":"157.48.0.0\/16","domain":"","type":"Not Disclosed"},"isp":"Reliance Jio Infocomm Ltd","connectionType":"mobile"}
INCHNACVPN01,2020:07:20:11:12,SuryTrip,TCL_Normal_Mac,10.149.232.133,06:49:15 IST Mon Jul 20 2020,4h:10m:53s, 103.84.81.232 ,{"ip":"103.84.81.232","location":{"country":"IN","region":"Maharashtra","city":"Pune","lat":18.5213,"lng":73.8523,"postalCode":"411008","timezone":"+05:30","geonameId":1259229},"as":{"asn":138520,"name":"Lalu Network Solutions","route":"103.84.81.0\/24","domain":"http:\/\/www.lnspl.in","type":"Not Disclosed"},"isp":"Lalu Network Solutions Private Limited","connectionType":"broadband"}
INCHNACVPN01,2020:07:20:11:12,PChikane,TCL_Normal_Mac,10.149.232.119,06:57:57 IST Mon Jul 20 2020,4h:02m:11s, 103.97.104.6 ,{"ip":"103.97.104.6","location":{"country":"IN","region":"Maharashtra","city":"Pune","lat":18.5213,"lng":73.8523,"postalCode":"411008","timezone":"+05:30","geonameId":1259229},"as":{"asn":135795,"name":"Silicon Care Broadnet Pvt Ltd.","route":"103.97.104.0\/24","domain":"","type":"Content"},"isp":"Jansutra Technologies Pvt Ltd","connectionType":"broadband"}
INCHNACVPN01,2020:07:20:11:12,DhaiMane,TCL_SecureAuth_OTP_Profile,10.149.232.199,07:05:07 IST Mon Jul 20 2020,3h:55m:01s, 106.193.128.16 ,{"ip":"106.193.128.16","location":{"country":"IN","region":"Maharashtra","city":"Jalgaon","lat":21.0029,"lng":75.566,"postalCode":"425001","timezone":"+05:30","geonameId":1269407},"as":{"asn":45609,"name":"Bharti Airtel Ltd. AS for GPRS Service","route":"106.193.128.0\/22","domain":"","type":""},"isp":"Airtel","connectionType":"mobile"}
INCHNACVPN01,2020:07:20:11:12,udayasri,TCL_SecureAuth_OTP_Profile,10.149.232.131,07:13:45 IST Mon Jul 20 2020,3h:46m:23s, 27.5.203.222 ,{"ip":"27.5.203.222","location":{"country":"IN","region":"Tamil Nadu","city":"Ambattur","lat":13.0982,"lng":80.1615,"postalCode":"","timezone":"+05:30","geonameId":1278840},"as":{"asn":17488,"name":"Hathway IP Over Cable Internet","route":"27.5.200.0\/22","domain":"http:\/\/www.hathway.net","type":"Cable\/DSL\/ISP"},"isp":"HATHWAY CABLE AND DATACOM LIMITED","connectionType":"broadband"}
INCHNACVPN01,2020:07:20:11:12,Hmavale,TCL_SecureAuth_OTP_Profile,10.149.232.167,07:19:28 IST Mon Jul 20 2020,3h:40m:40s, 106.209.171.13 ,{"ip":"106.209.171.13","location":{"country":"IN","region":"West Bengal","city":"Kolkata","lat":22.5726,"lng":88.3639,"postalCode":"700053","timezone":"+05:30","geonameId":1275004},"as":{"asn":45609,"name":"Bharti Airtel Ltd. AS for GPRS Service","route":"106.209.168.0\/22","domain":"","type":""},"isp":"Airtel","connectionType":"mobile"}
INCHNACVPN01,2020:07:20:11:12,asambath,TCL_SecureAuth_OTP_Profile,10.149.232.168,07:20:55 IST Mon Jul 20 2020,3h:39m:13s, 27.62.49.71 ,{"ip":"27.62.49.71","location":{"country":"IN","region":"Tamil Nadu","city":"Chennai","lat":13.0048,"lng":80.2569,"postalCode":"600016","timezone":"+05:30","geonameId":1264527},"as":{"asn":45609,"name":"Bharti Airtel Ltd. AS for GPRS Service","route":"27.62.48.0\/22","domain":"","type":""},"isp":"Bharti Airtel Limited","connectionType":"mobile"}
INCHNACVPN01,2020:07:20:11:12,asmuruga,TCL_SecureAuth_OTP_Profile,10.149.232.169,07:21:04 IST Mon Jul 20 2020,3h:39m:04s, 157.50.32.53 ,{"ip":"157.50.32.53","location":{"country":"IN","region":"Tamil Nadu","city":"Turaiyur","lat":11.1271,"lng":78.6569,"postalCode":"621010","timezone":"+05:30","geonameId":1254043},"as":{"asn":55836,"name":"Reliance Jio Infocomm NLD Network","route":"157.50.0.0\/16","domain":"","type":"Not Disclosed"},"isp":"Reliance Jio Infocomm Ltd","connectionType":"mobile"}
INCHNACVPN01,2020:07:20:11:12,BRaviNGB,TCL_SecureAuth_OTP_Profile,10.149.232.223,07:25:40 IST Mon Jul 20 2020,3h:34m:28s, 49.207.128.170 ,{"ip":"49.207.128.170","location":{"country":"IN","region":"Tamil Nadu","city":"Chennai","lat":13.0352,"lng":80.2395,"postalCode":"600001","timezone":"+05:30","geonameId":1264527},"as":{"asn":24309,"name":"Atria Convergence Technologies Ltd.","route":"49.207.128.0\/22","domain":"https:\/\/www.actcorp.in\/","type":"Cable\/DSL\/ISP"},"isp":"Beam Telecom Pvt Ltd","connectionType":"broadband"}
INCHNACVPN01,2020:07:20:11:12,prrajago,TCL_SecureAuth_OTP_Profile,10.149.232.224,07:26:17 IST Mon Jul 20 2020,3h:33m:51s, 157.50.68.161 ,{"ip":"157.50.68.161","location":{"country":"IN","region":"Tamil Nadu","city":"Turaiyur","lat":11.1271,"lng":78.6569,"postalCode":"621010","timezone":"+05:30","geonameId":1254043},"as":{"asn":55836,"name":"Reliance Jio Infocomm NLD Network","route":"157.50.0.0\/16","domain":"","type":"Not Disclosed"},"isp":"Reliance Jio Infocomm Ltd","connectionType":"mobile"}
INCHNACVPN01,2020:07:20:11:12,arjun.jinachandran,TCL_SecureAuth_OTP_Profile,10.149.232.226,07:27:08 IST Mon Jul 20 2020,3h:33m:00s, 103.147.209.185 ,{"ip":"103.147.209.185","location":{"country":"IN","region":"Kerala","city":"","lat":11.6032,"lng":76.0793,"postalCode":"673121","timezone":"+05:30","geonameId":1267254},"as":{"asn":138754,"name":"Kerala Vision Broad Band","route":"103.147.209.0\/24","domain":"http:\/\/www.keralavisionisp.com","type":"Not Disclosed"},"isp":"Kerala Vision Broad Band Private Limited","connectionType":"broadband"}
INCHNACVPN01,2020:07:20:11:12,jrajend,TCL_SecureAuth_OTP_Profile,10.149.232.225,07:27:13 IST Mon Jul 20 2020,3h:32m:55s, 223.228.150.19 ,{"ip":"223.228.150.19","location":{"country":"IN","region":"Tamil Nadu","city":"Chennai","lat":13.0048,"lng":80.2569,"postalCode":"600016","timezone":"+05:30","geonameId":1264527},"as":{"asn":45609,"name":"Bharti Airtel Ltd. AS for GPRS Service","route":"223.228.128.0\/19","domain":"","type":""},"isp":"Bharti Airtel","connectionType":"mobile"}
INCHNACVPN01,2020:07:20:11:12,sanjsank,TCL_SecureAuth_OTP_Profile,10.149.232.227,07:28:57 IST Mon Jul 20 2020,3h:31m:11s, 223.228.171.86 ,{"ip":"223.228.171.86","location":{"country":"IN","region":"Kerala","city":"Kizhake Ch\u0101lakudi","lat":10.3007,"lng":76.3376,"postalCode":"","timezone":"+05:30","geonameId":1266452},"as":{"asn":45609,"name":"Bharti Airtel Ltd. AS for GPRS Service","route":"223.228.160.0\/19","domain":"","type":""},"isp":"Bharti Airtel Limited","connectionType":"mobile"}
INCHNACVPN01,2020:07:20:11:12,asoundar,TCL_SecureAuth_OTP_Profile,10.149.232.231,07:30:29 IST Mon Jul 20 2020,3h:29m:39s, 106.198.116.192 ,{"ip":"106.198.116.192","location":{"country":"IN","region":"Tamil Nadu","city":"Hosur","lat":12.7365,"lng":77.8326,"postalCode":"","timezone":"+05:30","geonameId":1269934},"as":{"asn":45609,"name":"Bharti Airtel Ltd. AS for GPRS Service","route":"106.198.116.0\/22","domain":"","type":""},"isp":"Bharti Airtel Limited","connectionType":"mobile"}
INCHNACVPN01,2020:07:20:11:12,santbabu,TCL_SecureAuth_OTP_Profile,10.149.232.101,07:35:54 IST Mon Jul 20 2020,3h:24m:14s, 157.50.142.107 ,{"ip":"157.50.142.107","location":{"country":"IN","region":"Tamil Nadu","city":"Jalakandapuram","lat":11.6978,"lng":77.873,"postalCode":"","timezone":"+05:30","geonameId":1269449},"as":{"asn":55836,"name":"Reliance Jio Infocomm NLD Network","route":"157.50.0.0\/16","domain":"","type":"Not Disclosed"},"isp":"Reliance Jio Infocomm Ltd","connectionType":"mobile"}
INCHNACVPN01,2020:07:20:11:12,VVaitla,TCL_Normal_Mac,10.149.232.105,07:41:47 IST Mon Jul 20 2020,3h:18m:21s, 106.208.37.75 ,{"ip":"106.208.37.75","location":{"country":"IN","region":"Andhra Pradesh","city":"Erraguntla","lat":14.6385,"lng":78.5397,"postalCode":"","timezone":"+05:30","geonameId":1272008},"as":{"asn":45609,"name":"Bharti Airtel Ltd. AS for GPRS Service","route":"106.208.36.0\/22","domain":"","type":""},"isp":"Airtel","connectionType":"mobile"}
INCHNACVPN01,2020:07:20:11:12,prangasa,TCL_SecureAuth_OTP_Profile,10.149.232.106,07:42:13 IST Mon Jul 20 2020,3h:17m:55s, 157.46.21.162 ,{"ip":"157.46.21.162","location":{"country":"IN","region":"Maharashtra","city":"Navi Mumbai","lat":19.1299,"lng":73.0147,"postalCode":"","timezone":"+05:30","geonameId":6619347},"as":{"asn":55836,"name":"Reliance Jio Infocomm NLD Network","route":"157.32.0.0\/12","domain":"","type":"Not Disclosed"},"isp":"Reliance Jio Infocomm Limited","connectionType":"mobile"}
INCHNACVPN01,2020:07:20:11:12,srpriya,TCL_SecureAuth_OTP_Profile,10.149.232.107,07:44:09 IST Mon Jul 20 2020,3h:15m:59s, 157.33.142.44 ,{"ip":"157.33.142.44","location":{"country":"IN","region":"Maharashtra","city":"Navi Mumbai","lat":19.1299,"lng":73.0147,"postalCode":"","timezone":"+05:30","geonameId":6619347},"as":{"asn":55836,"name":"Reliance Jio Infocomm NLD Network","route":"157.33.128.0\/17","domain":"","type":"Not Disclosed"},"isp":"Reliance Jio Infocomm Limited","connectionType":"mobile"}
INCHNACVPN01,2020:07:20:11:12,viveshan,TCL_SecureAuth_OTP_Profile,10.149.232.198,07:50:17 IST Mon Jul 20 2020,3h:09m:51s, 157.50.95.250 ,{"ip":"157.50.95.250","location":{"country":"IN","region":"Tamil Nadu","city":"Turaiyur","lat":11.1271,"lng":78.6569,"postalCode":"621010","timezone":"+05:30","geonameId":1254043},"as":{"asn":55836,"name":"Reliance Jio Infocomm NLD Network","route":"157.50.0.0\/16","domain":"","type":"Not Disclosed"},"isp":"Reliance Jio Infocomm Ltd","connectionType":"mobile"}
INCHNACVPN01,2020:07:20:11:12,amit.singhal,TCL_SecureAuth_OTP_Profile,10.149.232.202,07:50:22 IST Mon Jul 20 2020,3h:09m:46s, 150.129.28.84 ,{"ip":"150.129.28.84","location":{"country":"IN","region":"Maharashtra","city":"Virar","lat":19.4559,"lng":72.8114,"postalCode":"401303","timezone":"+05:30","geonameId":1253133},"as":{"asn":132497,"name":"DNA Infotel","route":"150.129.28.0\/24","domain":"http:\/\/www.dnainfotel.com","type":"Cable\/DSL\/ISP"},"isp":"DNA INFOTEL PRIVATE LIMITED","connectionType":"broadband"}
INCHNACVPN01,2020:07:20:11:12,RVeerapp,TCL_SecureAuth_OTP_Profile,10.149.232.204,07:52:36 IST Mon Jul 20 2020,3h:07m:32s, 157.50.62.243 ,{"ip":"157.50.62.243","location":{"country":"IN","region":"Tamil Nadu","city":"Turaiyur","lat":11.1271,"lng":78.6569,"postalCode":"621010","timezone":"+05:30","geonameId":1254043},"as":{"asn":55836,"name":"Reliance Jio Infocomm NLD Network","route":"157.50.0.0\/16","domain":"","type":"Not Disclosed"},"isp":"Reliance Jio Infocomm Ltd","connectionType":"mobile"}
INCHNACVPN01,2020:07:20:11:12,premraje,TCL_SecureAuth_OTP_Profile,10.149.232.205,07:52:47 IST Mon Jul 20 2020,3h:07m:21s, 49.207.128.234 ,{"ip":"49.207.128.234","location":{"country":"IN","region":"Tamil Nadu","city":"Chennai","lat":13.0352,"lng":80.2395,"postalCode":"600001","timezone":"+05:30","geonameId":1264527},"as":{"asn":24309,"name":"Atria Convergence Technologies Ltd.","route":"49.207.128.0\/22","domain":"https:\/\/www.actcorp.in\/","type":"Cable\/DSL\/ISP"},"isp":"Beam Telecom Pvt Ltd","connectionType":"broadband"}
INCHNACVPN01,2020:07:20:11:12,valchock,TCL_SecureAuth_OTP_Profile,10.149.232.206,07:56:26 IST Mon Jul 20 2020,3h:03m:42s, 182.65.193.28 ,{"ip":"182.65.193.28","location":{"country":"IN","region":"Tamil Nadu","city":"Chetput","lat":13.07,"lng":80.2408,"postalCode":"","timezone":"+05:30","geonameId":1274394},"as":{"asn":24560,"name":"Bharti Airtel Ltd., Telemedia Services","route":"182.65.192.0\/20","domain":"airtelmail.in","type":""},"isp":"Bharti Airtel","connectionType":"broadband"}
INCHNACVPN01,2020:07:20:11:12,satreddy,TCL_SecureAuth_OTP_Profile,10.149.232.207,07:56:52 IST Mon Jul 20 2020,3h:03m:16s, 157.47.118.85 ,{"ip":"157.47.118.85","location":{"country":"IN","region":"Telangana","city":"Secunderabad","lat":17.5043,"lng":78.5426,"postalCode":"","timezone":"+05:30","geonameId":1256922},"as":{"asn":55836,"name":"Reliance Jio Infocomm NLD Network","route":"157.32.0.0\/12","domain":"","type":"Not Disclosed"},"isp":"Reliance Jio Infocomm Limited","connectionType":"mobile"}
INCHNACVPN01,2020:07:20:11:12,KAkula,TCL_SecureAuth_OTP_Profile,10.149.232.118,08:10:51 IST Mon Jul 20 2020,2h:49m:17s, 157.46.224.36 ,{"ip":"157.46.224.36","location":{"country":"IN","region":"Telangana","city":"B\u0101l\u0101pur","lat":17.3102,"lng":78.4997,"postalCode":"","timezone":"+05:30","geonameId":1445310},"as":{"asn":55836,"name":"Reliance Jio Infocomm NLD Network","route":"157.32.0.0\/12","domain":"","type":"Not Disclosed"},"isp":"Reliance Jio Infocomm Limited","connectionType":"mobile"}
INCHNACVPN01,2020:07:20:11:12,sbalagar,TCL_Normal_Mac,10.149.232.120,08:11:18 IST Mon Jul 20 2020,2h:48m:50s, 157.46.31.117 ,{"ip":"157.46.31.117","location":{"country":"IN","region":"Maharashtra","city":"Navi Mumbai","lat":19.1299,"lng":73.0147,"postalCode":"","timezone":"+05:30","geonameId":6619347},"as":{"asn":55836,"name":"Reliance Jio Infocomm NLD Network","route":"157.32.0.0\/12","domain":"","type":"Not Disclosed"},"isp":"Reliance Jio Infocomm Limited","connectionType":"mobile"}
INCHNACVPN01,2020:07:20:11:12,jjayakum,TCL_SecureAuth_OTP_Profile,10.149.232.100,08:18:55 IST Mon Jul 20 2020,2h:41m:13s, 115.97.48.25 ,{"ip":"115.97.48.25","location":{"country":"IN","region":"Maharashtra","city":"Mumbai","lat":19.0044,"lng":72.8266,"postalCode":"400001","timezone":"+05:30","geonameId":1275339},"as":{"asn":17488,"name":"Hathway IP Over Cable Internet","route":"115.97.48.0\/21","domain":"http:\/\/www.hathway.net","type":"Cable\/DSL\/ISP"},"isp":"Hathway IP over Cable Internet Access","connectionType":"broadband"}
INCHNACVPN01,2020:07:20:11:12,mansoomo,TCL_SecureAuth_OTP_Profile,10.149.232.109,08:20:25 IST Mon Jul 20 2020,2h:39m:43s, 60.243.86.21 ,{"ip":"60.243.86.21","location":{"country":"IN","region":"Tamil Nadu","city":"Ambattur","lat":13.0982,"lng":80.1615,"postalCode":"","timezone":"+05:30","geonameId":1278840},"as":{"asn":17488,"name":"Hathway IP Over Cable Internet","route":"60.243.80.0\/20","domain":"http:\/\/www.hathway.net","type":"Cable\/DSL\/ISP"},"isp":"Hathway IP over Cable Internet Access","connectionType":"broadband"}
INCHNACVPN01,2020:07:20:11:12,jayaprasad.k,TCL_SecureAuth_OTP_Profile,10.149.232.222,08:25:30 IST Mon Jul 20 2020,2h:34m:38s, 157.47.70.89 ,{"ip":"157.47.70.89","location":{"country":"IN","region":"Maharashtra","city":"Navi Mumbai","lat":19.1299,"lng":73.0147,"postalCode":"","timezone":"+05:30","geonameId":6619347},"as":{"asn":55836,"name":"Reliance Jio Infocomm NLD Network","route":"157.32.0.0\/12","domain":"","type":"Not Disclosed"},"isp":"Reliance Jio Infocomm Limited","connectionType":"mobile"}
INCHNACVPN01,2020:07:20:11:12,vivekkk,TCL_SecureAuth_OTP_Profile,10.149.232.228,08:25:36 IST Mon Jul 20 2020,2h:34m:32s, 183.83.153.42 ,{"ip":"183.83.153.42","location":{"country":"IN","region":"Tamil Nadu","city":"Chennai","lat":13.0827,"lng":80.2707,"postalCode":"600001","timezone":"+05:30","geonameId":1264527},"as":{"asn":24309,"name":"Atria Convergence Technologies Ltd.","route":"183.83.152.0\/22","domain":"https:\/\/www.actcorp.in\/","type":"Cable\/DSL\/ISP"},"isp":"ACT Fibernet","connectionType":"broadband"}
INCHNACVPN01,2020:07:20:11:12,Smundeko,TCL_SecureAuth_OTP_Profile,10.149.232.108,08:30:26 IST Mon Jul 20 2020,2h:29m:42s, 103.194.69.238 ,{"ip":"103.194.69.238","location":{"country":"IN","region":"Kerala","city":"Ernakulam","lat":9.967,"lng":76.2917,"postalCode":"682036","timezone":"+05:30","geonameId":1272018},"as":{"asn":133997,"name":"E and U Technology Services","route":"103.194.69.0\/24","domain":"","type":"Not Disclosed"},"isp":"E and U Technology Services LLP","connectionType":"broadband"}
INCHNACVPN01,2020:07:20:11:12,shamit.paul,TCL_Normal_Mac,10.149.232.113,08:31:03 IST Mon Jul 20 2020,2h:29m:05s, 106.77.9.28 ,{"ip":"106.77.9.28","location":{"country":"IN","region":"Maharashtra","city":"Karmala","lat":18.4077,"lng":75.1939,"postalCode":"","timezone":"+05:30","geonameId":1267716},"as":{"asn":45271,"name":"Idea Cellular Limited","route":"106.77.0.0\/20","domain":"","type":""},"isp":"Idea Cellular Limited","connectionType":"mobile"}
INCHNACVPN01,2020:07:20:11:12,RMalamel,TCL_SecureAuth_OTP_Profile,10.149.232.115,08:31:30 IST Mon Jul 20 2020,2h:28m:38s, 111.92.79.167 ,{"ip":"111.92.79.167","location":{"country":"IN","region":"Kerala","city":"Ernakulam","lat":9.967,"lng":76.2917,"postalCode":"682019","timezone":"+05:30","geonameId":1272018},"as":{"asn":17465,"name":"Asianet Satellite Communications Ltd","route":"111.92.72.0\/21","domain":"http:\/\/www.asianetbroadband.in","type":"Cable\/DSL\/ISP"},"isp":"Asianet Satellite Communications Pvt Ltd","connectionType":"broadband"}
INCHNACVPN01,2020:07:20:11:12,mardalka,TCL_SecureAuth_OTP_Profile,10.149.232.116,08:32:25 IST Mon Jul 20 2020,2h:27m:43s, 106.193.137.254 ,{"ip":"106.193.137.254","location":{"country":"IN","region":"Maharashtra","city":"Bhayandar","lat":19.3341,"lng":72.8087,"postalCode":"","timezone":"+05:30","geonameId":1276014},"as":{"asn":45609,"name":"Bharti Airtel Ltd. AS for GPRS Service","route":"106.193.136.0\/22","domain":"","type":""},"isp":"Airtel","connectionType":"mobile"}
